[{"OBJECT_NAME":"JILIN-1 GAOFEN 3D31","OBJECT_ID":"2022-048F","EPOCH":"2026-03-09T22:43:25.074336","MEAN_MOTION":15.6100761,"ECCENTRICITY":0.00020948,"INCLINATION":97.5608,"RA_OF_ASC_NODE":176.1853,"ARG_OF_PERICENTER":115.2158,"MEAN_ANOMALY":244.9316,"EPHEMERIS_TYPE":0,"CLASSIFICATION_TYPE":"U","NORAD_CAT_ID":52448,"ELEMENT_SET_NO":999,"REV_AT_EPOCH":21401,"BSTAR":0.0010031145,"MEAN_MOTION_DOT":0.00084827,"MEAN_MOTION_DDOT":0},{"OBJECT_NAME":"STARLINK-36391","OBJECT_ID":"2026-018C","EPOCH":"2026-03-09T22:00:01.999584","MEAN_MOTION":15.71805475,"ECCENTRICITY":0.00018979,"INCLINATION":97.2838,"RA_OF_ASC_NODE":134.8081,"ARG_OF_PERICENTER":78.8846,"MEAN_ANOMALY":80.4712,"EPHEMERIS_TYPE":0,"CLASSIFICATION_TYPE":"U","NORAD_CAT_ID":67591,"ELEMENT_SET_NO":999,"REV_AT_EPOCH":592,"BSTAR":-0.017101099,"MEAN_MOTION_DOT":-0.01917866,"MEAN_MOTION_DDOT":0}]
